[{"OBJECT_NAME":"INTELSAT 23 (IS-23)","OBJECT_ID":"2012-057A","EPOCH":"2026-02-01T21:47:33.207072","MEAN_MOTION":1.0026696,"ECCENTRICITY":0.00020816,"INCLINATION":0.017,"RA_OF_ASC_NODE":229.7801,"ARG_OF_PERICENTER":73.0673,"MEAN_ANOMALY":103.1277,"EPHEMERIS_TYPE":0,"CLASSIFICATION_TYPE":"U","NORAD_CAT_ID":38867,"ELEMENT_SET_NO":999,"REV_AT_EPOCH":4859,"BSTAR":0,"MEAN_MOTION_DOT":0,"MEAN_MOTION_DDOT":0},{"OBJECT_NAME":"FM-6","OBJECT_ID":"2013-058A","EPOCH":"2026-02-01T16:21:18.602784","MEAN_MOTION":1.00269461,"ECCENTRICITY":0.00031151,"INCLINATION":0.0261,"RA_OF_ASC_NODE":95.8867,"ARG_OF_PERICENTER":82.8323,"MEAN_ANOMALY":82.2955,"EPHEMERIS_TYPE":0,"CLASSIFICATION_TYPE":"U","NORAD_CAT_ID":39360,"ELEMENT_SET_NO":999,"REV_AT_EPOCH":4471,"BSTAR":0,"MEAN_MOTION_DOT":-2.6e-7,"MEAN_MOTION_DDOT":0},{"OBJECT_NAME":"INTELSAT 30 (IS-30)","OBJECT_ID":"2014-062A","EPOCH":"2026-02-01T19:52:36.721056","MEAN_MOTION":1.00271299,"ECCENTRICITY":0.00011582,"INCLINATION":0.0135,"RA_OF_ASC_NODE":60.7787,"ARG_OF_PERICENTER":49.1245,"MEAN_ANOMALY":225.1994,"EPHEMERIS_TYPE":0,"CLASSIFICATION_TYPE":"U","NORAD_CAT_ID":40271,"ELEMENT_SET_NO":999,"REV_AT_EPOCH":543,"BSTAR":0,"MEAN_MOTION_DOT":-1.61e-6,"MEAN_MOTION_DDOT":0},{"OBJECT_NAME":"DIRECTV 14","OBJECT_ID":"2014-078B","EPOCH":"2026-02-01T21:34:26.962752","MEAN_MOTION":1.00272169,"ECCENTRICITY":5.001e-5,"INCLINATION":0.0182,"RA_OF_ASC_NODE":71.9657,"ARG_OF_PERICENTER":132.0569,"MEAN_ANOMALY":152.4362,"EPHEMERIS_TYPE":0,"CLASSIFICATION_TYPE":"U","NORAD_CAT_ID":40333,"ELEMENT_SET_NO":999,"REV_AT_EPOCH":4068,"BSTAR":0,"MEAN_MOTION_DOT":-1.35e-6,"MEAN_MOTION_DDOT":0},{"OBJECT_NAME":"DIRECTV 15","OBJECT_ID":"2015-026A","EPOCH":"2026-02-01T16:25:18.220224","MEAN_MOTION":1.00270184,"ECCENTRICITY":6.458e-5,"INCLINATION":0.0162,"RA_OF_ASC_NODE":87.5088,"ARG_OF_PERICENTER":108.2851,"MEAN_ANOMALY":79.5083,"EPHEMERIS_TYPE":0,"CLASSIFICATION_TYPE":"U","NORAD_CAT_ID":40663,"ELEMENT_SET_NO":999,"REV_AT_EPOCH":3910,"BSTAR":0,"MEAN_MOTION_DOT":-1.12e-6,"MEAN_MOTION_DDOT":0},{"OBJECT_NAME":"SKY MEXICO-1","OBJECT_ID":"2015-026B","EPOCH":"2026-02-01T21:40:11.412768","MEAN_MOTION":1.00268434,"ECCENTRICITY":0.00021875,"INCLINATION":0.0272,"RA_OF_ASC_NODE":91.1644,"ARG_OF_PERICENTER":230.823,"MEAN_ANOMALY":56.4118,"EPHEMERIS_TYPE":0,"CLASSIFICATION_TYPE":"U","NORAD_CAT_ID":40664,"ELEMENT_SET_NO":999,"REV_AT_EPOCH":3909,"BSTAR":0,"MEAN_MOTION_DOT":0,"MEAN_MOTION_DDOT":0},{"OBJECT_NAME":"INTELSAT 34 (IS-34)","OBJECT_ID":"2015-039A","EPOCH":"2026-02-01T09:47:59.814816","MEAN_MOTION":1.00272319,"ECCENTRICITY":7.795e-5,"INCLINATION":0.0111,"RA_OF_ASC_NODE":17.7394,"ARG_OF_PERICENTER":198.1324,"MEAN_ANOMALY":7.2239,"EPHEMERIS_TYPE":0,"CLASSIFICATION_TYPE":"U","NORAD_CAT_ID":40874,"ELEMENT_SET_NO":999,"REV_AT_EPOCH":3826,"BSTAR":0,"MEAN_MOTION_DOT":-2.95e-6,"MEAN_MOTION_DDOT":0},{"OBJECT_NAME":"INTELSAT 31 (IS-31)","OBJECT_ID":"2016-035A","EPOCH":"2026-02-01T21:35:34.354752","MEAN_MOTION":1.00269453,"ECCENTRICITY":0.00021453,"INCLINATION":0.0416,"RA_OF_ASC_NODE":261.5772,"ARG_OF_PERICENTER":322.1204,"MEAN_ANOMALY":137.2007,"EPHEMERIS_TYPE":0,"CLASSIFICATION_TYPE":"U","NORAD_CAT_ID":41581,"ELEMENT_SET_NO":999,"REV_AT_EPOCH":3532,"BSTAR":0,"MEAN_MOTION_DOT":-1.6e-6,"MEAN_MOTION_DDOT":0},{"OBJECT_NAME":"INTELSAT 36 (IS-36)","OBJECT_ID":"2016-053A","EPOCH":"2026-02-01T20:13:38.690688","MEAN_MOTION":1.00271138,"ECCENTRICITY":0.00015215,"INCLINATION":0.0113,"RA_OF_ASC_NODE":53.9633,"ARG_OF_PERICENTER":260.3395,"MEAN_ANOMALY":189.6196,"EPHEMERIS_TYPE":0,"CLASSIFICATION_TYPE":"U","NORAD_CAT_ID":41747,"ELEMENT_SET_NO":999,"REV_AT_EPOCH":3459,"BSTAR":0,"MEAN_MOTION_DOT":-3.4e-7,"MEAN_MOTION_DDOT":0},{"OBJECT_NAME":"INTELSAT 32E (IS-32E)","OBJECT_ID":"2017-007B","EPOCH":"2026-02-01T09:51:29.479968","MEAN_MOTION":1.00269691,"ECCENTRICITY":3.827e-5,"INCLINATION":0.0135,"RA_OF_ASC_NODE":86.3679,"ARG_OF_PERICENTER":256.5071,"MEAN_ANOMALY":253.4133,"EPHEMERIS_TYPE":0,"CLASSIFICATION_TYPE":"U","NORAD_CAT_ID":41945,"ELEMENT_SET_NO":999,"REV_AT_EPOCH":3286,"BSTAR":0,"MEAN_MOTION_DOT":-2.79e-6,"MEAN_MOTION_DDOT":0},{"OBJECT_NAME":"INTELSAT 35E (IS-35E)","OBJECT_ID":"2017-041A","EPOCH":"2026-02-01T21:52:55.193088","MEAN_MOTION":1.00270027,"ECCENTRICITY":0.00022753,"INCLINATION":0.0124,"RA_OF_ASC_NODE":92.457,"ARG_OF_PERICENTER":222.9097,"MEAN_ANOMALY":110.45,"EPHEMERIS_TYPE":0,"CLASSIFICATION_TYPE":"U","NORAD_CAT_ID":42818,"ELEMENT_SET_NO":999,"REV_AT_EPOCH":3145,"BSTAR":0,"MEAN_MOTION_DOT":-2.48e-6,"MEAN_MOTION_DDOT":0},{"OBJECT_NAME":"INTELSAT 37E (IS-37E)","OBJECT_ID":"2017-059A","EPOCH":"2026-02-01T21:57:32.250240","MEAN_MOTION":1.00271711,"ECCENTRICITY":0.00027314,"INCLINATION":0.0246,"RA_OF_ASC_NODE":100.5217,"ARG_OF_PERICENTER":196.859,"MEAN_ANOMALY":146.1243,"EPHEMERIS_TYPE":0,"CLASSIFICATION_TYPE":"U","NORAD_CAT_ID":42950,"ELEMENT_SET_NO":999,"REV_AT_EPOCH":3070,"BSTAR":0,"MEAN_MOTION_DOT":0,"MEAN_MOTION_DDOT":0},{"OBJECT_NAME":"AZERSPACE 2 (IS-38)","OBJECT_ID":"2018-074A","EPOCH":"2026-02-01T21:41:38.899680","MEAN_MOTION":1.00268883,"ECCENTRICITY":0.0001563,"INCLINATION":0.0218,"RA_OF_ASC_NODE":92.8285,"ARG_OF_PERICENTER":226.9746,"MEAN_ANOMALY":182.8329,"EPHEMERIS_TYPE":0,"CLASSIFICATION_TYPE":"U","NORAD_CAT_ID":43632,"ELEMENT_SET_NO":999,"REV_AT_EPOCH":2709,"BSTAR":0,"MEAN_MOTION_DOT":0,"MEAN_MOTION_DDOT":0},{"OBJECT_NAME":"HORIZONS-3E","OBJECT_ID":"2018-074B","EPOCH":"2026-02-01T19:47:38.647104","MEAN_MOTION":1.00270675,"ECCENTRICITY":6.429e-5,"INCLINATION":0.0516,"RA_OF_ASC_NODE":247.2923,"ARG_OF_PERICENTER":72.3756,"MEAN_ANOMALY":278.2239,"EPHEMERIS_TYPE":0,"CLASSIFICATION_TYPE":"U","NORAD_CAT_ID":43633,"ELEMENT_SET_NO":999,"REV_AT_EPOCH":2698,"BSTAR":0,"MEAN_MOTION_DOT":-4.1e-7,"MEAN_MOTION_DDOT":0},{"OBJECT_NAME":"AT&T T-16","OBJECT_ID":"2019-034A","EPOCH":"2026-02-01T21:33:57.011328","MEAN_MOTION":1.00271416,"ECCENTRICITY":9.964e-5,"INCLINATION":0.0205,"RA_OF_ASC_NODE":86.4226,"ARG_OF_PERICENTER":89.6334,"MEAN_ANOMALY":178.6406,"EPHEMERIS_TYPE":0,"CLASSIFICATION_TYPE":"U","NORAD_CAT_ID":44333,"ELEMENT_SET_NO":999,"REV_AT_EPOCH":2427,"BSTAR":0,"MEAN_MOTION_DOT":-1.25e-6,"MEAN_MOTION_DDOT":0},{"OBJECT_NAME":"INTELSAT 39 (IS-39)","OBJECT_ID":"2019-049B","EPOCH":"2026-02-01T21:25:38.770176","MEAN_MOTION":1.00269227,"ECCENTRICITY":8.037e-5,"INCLINATION":0.0275,"RA_OF_ASC_NODE":93.0327,"ARG_OF_PERICENTER":55.5851,"MEAN_ANOMALY":6.8417,"EPHEMERIS_TYPE":0,"CLASSIFICATION_TYPE":"U","NORAD_CAT_ID":44476,"ELEMENT_SET_NO":999,"REV_AT_EPOCH":2377,"BSTAR":0,"MEAN_MOTION_DOT":0,"MEAN_MOTION_DDOT":0},{"OBJECT_NAME":"GALAXY 30 (G-30)","OBJECT_ID":"2020-056C","EPOCH":"2026-02-01T16:18:56.329632","MEAN_MOTION":1.00272904,"ECCENTRICITY":0.00022424,"INCLINATION":0.0162,"RA_OF_ASC_NODE":66.4265,"ARG_OF_PERICENTER":252.2121,"MEAN_ANOMALY":292.9621,"EPHEMERIS_TYPE":0,"CLASSIFICATION_TYPE":"U","NORAD_CAT_ID":46114,"ELEMENT_SET_NO":999,"REV_AT_EPOCH":1993,"BSTAR":0,"MEAN_MOTION_DOT":2.7e-7,"MEAN_MOTION_DDOT":0}]
