INTELSAT 23 (IS-23)     
1 38867U 12057A   26032.90802323  .00000000  00000+0  00000+0 0  9995
2 38867   0.0170 229.7801 0002081  73.0673 103.1277  1.00266960 48595
FM-6                    
1 39360U 13058A   26032.68146531 -.00000026  00000+0  00000+0 0  9992
2 39360   0.0261  95.8867 0003115  82.8323  82.2955  1.00269461 44717
INTELSAT 30 (IS-30)     
1 40271U 14062A   26032.82820279 -.00000161  00000+0  00000+0 0  9995
2 40271   0.0135  60.7787 0001158  49.1245 225.1994  1.00271299  5435
DIRECTV 14              
1 40333U 14078B   26032.89892318 -.00000135  00000+0  00000+0 0  9992
2 40333   0.0182  71.9657 0000500 132.0569 152.4362  1.00272169 40681
DIRECTV 15              
1 40663U 15026A   26032.68423866 -.00000112  00000+0  00000+0 0  9992
2 40663   0.0162  87.5088 0000645 108.2851  79.5083  1.00270184 39104
SKY MEXICO-1            
1 40664U 15026B   26032.90290987  .00000000  00000+0  00000+0 0  9999
2 40664   0.0272  91.1644 0002187 230.8230  56.4118  1.00268434 39098
INTELSAT 34 (IS-34)     
1 40874U 15039A   26032.40833119 -.00000295  00000+0  00000+0 0  9998
2 40874   0.0111  17.7394 0000779 198.1324   7.2239  1.00272319 38267
INTELSAT 31 (IS-31)     
1 41581U 16035A   26032.89970318 -.00000160  00000+0  00000+0 0  9998
2 41581   0.0416 261.5772 0002145 322.1204 137.2007  1.00269453 35321
INTELSAT 36 (IS-36)     
1 41747U 16053A   26032.84280892 -.00000034  00000+0  00000+0 0  9998
2 41747   0.0113  53.9633 0001521 260.3395 189.6196  1.00271138 34590
INTELSAT 32E (IS-32E)   
1 41945U 17007B   26032.41075787 -.00000279  00000+0  00000+0 0  9997
2 41945   0.0135  86.3679 0000382 256.5071 253.4133  1.00269691 32866
INTELSAT 35E (IS-35E)   
1 42818U 17041A   26032.91174992 -.00000248  00000+0  00000+0 0  9994
2 42818   0.0124  92.4570 0002275 222.9097 110.4500  1.00270027 31459
INTELSAT 37E (IS-37E)   
1 42950U 17059A   26032.91495660  .00000000  00000+0  00000+0 0  9993
2 42950   0.0246 100.5217 0002731 196.8590 146.1243  1.00271711 30702
AZERSPACE 2 (IS-38)     
1 43632U 18074A   26032.90392245  .00000000  00000+0  00000+0 0  9993
2 43632   0.0218  92.8285 0001563 226.9746 182.8329  1.00268883 27093
HORIZONS-3E             
1 43633U 18074B   26032.82475286 -.00000041  00000+0  00000+0 0  9998
2 43633   0.0516 247.2923 0000642  72.3756 278.2239  1.00270675 26980
AT&T T-16               
1 44333U 19034A   26032.89857652 -.00000125  00000+0  00000+0 0  9994
2 44333   0.0205  86.4226 0000996  89.6334 178.6406  1.00271416 24270
INTELSAT 39 (IS-39)     
1 44476U 19049B   26032.89280984  .00000000  00000+0  00000+0 0  9997
2 44476   0.0275  93.0327 0000803  55.5851   6.8417  1.00269227 23779
GALAXY 30 (G-30)        
1 46114U 20056C   26032.67981863  .00000027  00000+0  00000+0 0  9997
2 46114   0.0162  66.4265 0002242 252.2121 292.9621  1.00272904 19939
